ID;lon;lat;all_tags;name;zip;address;city;WKT
1;13.37;52.53;DKV - TOTAL Station  10115 Berlin  Chausseestr. 61;TOTAL;10115;Chausseestr. 61;Berlin;POINT(13.3752222 52.5370079)
2;13.42;52.51;DKV - ARAL Station  10179 Berlin  Holzmarktstr. 12 - 14;ARAL;10179;Holzmarktstr. 12 - 14;Berlin;POINT(13.4218919 52.5140381)
3;13.42;52.51;DKV - CleanCar Station  10179 Berlin  Holzmarktstr. 5;CleanCar;10179;Holzmarktstr. 5;Berlin;POINT(13.420068 52.51453)
4;13.41;52.51;DKV - HEM Station  10179 Berlin  Holzmarktstr. 4;HEM;10179;Holzmarktstr. 4;Berlin;POINT(13.419633 52.514823)
5;13.42;52.51;DKV - TOTAL Station  10243 Berlin  Holzmarktstr. 36 - 42;TOTAL;10243;Holzmarktstr. 36 - 42;Berlin;POINT(13.4283684 52.5113173)
6;13.51;52.52;DKV - STAR Station  10315 Berlin  Rhinstr. 47;STAR;10315;Rhinstr. 47;Berlin;POINT(13.5191667 52.5225)
7;13.53;52.50;DKV - TAMOIL Station  10315 Berlin  Alt-Friedrichsfelde 61;TAMOIL;10315;Alt-Friedrichsfelde 61;Berlin;POINT(13.5310616 52.5096825)
8;13.50;52.48;DKV - TOTAL Station  10318 Berlin  Blockdammweg 6;TOTAL;10318;Blockdammweg 6;Berlin;POINT(13.50219 52.4829935)
9;13.52;52.49;DKV - JET Station  10319 Berlin  Am Tierpark 126;JET;10319;Am Tierpark 126;Berlin;POINT(13.524618 52.494977)
10;13.49;52.51;DKV - ARAL Station  10365 Berlin  Frankfurter Allee 214;ARAL;10365;Frankfurter Allee 214;Berlin;POINT(13.4937701 52.5115921)
11;13.50;52.53;DKV - CleanCar Station  10365 Berlin  Siegfriedstr. 80;CleanCar;10365;Siegfriedstr. 80;Berlin;POINT(13.502498 52.531842)
12;13.49;52.52;DKV - JET Station  10365 Berlin  Siegfriedstr. 179;JET;10365;Siegfriedstr. 179;Berlin;POINT(13.4994444 52.5216667)
13;13.48;52.52;DKV - JET Station  10365 Berlin  Herzbergstr. 27;JET;10365;Herzbergstr. 27;Berlin;POINT(13.488573 52.526311)
14;13.48;52.50;DKV - SHELL Station  10365 Berlin  Buchberger Str. 30;SHELL;10365;Buchberger Str. 30;Berlin;POINT(13.4840192 52.5064773)
15;13.49;52.52;DKV - STAR Station  10365 Berlin  Siegfriedstr. 170;STAR;10365;Siegfriedstr. 170;Berlin;POINT(13.4992522 52.5243322)
16;13.45;52.52;DKV - TOTAL Station  10369 Berlin  Storkower Str. 174;TOTAL;10369;Storkower Str. 174;Berlin;POINT(13.4583039 52.5275954)
17;13.41;52.52;DKV - TOTAL Station  10405 Berlin  Prenzlauer Allee 3;TOTAL;10405;Prenzlauer Allee 3;Berlin;POINT(13.417837 52.528675)
18;13.45;52.53;DKV - ELAN Station  10407 Berlin  Storkower Str. 116;ELAN;10407;Storkower Str. 116;Berlin;POINT(13.4510837 52.535515)
19;13.45;52.53;DKV - JET Station  10407 Berlin  Storkower Str. 130;JET;10407;Storkower Str. 130;Berlin;POINT(13.4525763 52.5339008)
20;13.44;52.53;DKV - SPRINT Station  10407 Berlin  Kniprodestr. 25;SPRINT;10407;Kniprodestr. 25;Berlin;POINT(13.444937 52.533838)
21;13.44;52.53;DKV - TOTAL Station  10407 Berlin  Margarete-Sommer-Str. 2;TOTAL;10407;Margarete-Sommer-Str. 2;Berlin;POINT(13.4414088 52.5306932)
22;13.32;52.53;DKV - ARAL Station  10553 Berlin  Beusselstr. 55;ARAL;10553;Beusselstr. 55;Berlin;POINT(13.3284365 52.5305845)
23;13.32;52.53;DKV - SHELL Station  10553 Berlin  Beusselstr. 44;SHELL;10553;Beusselstr. 44;Berlin;POINT(13.324885 52.53551)
24;13.33;52.52;DKV - ARAL Station  10555 Berlin  Levetzowstr. 9;ARAL;10555;Levetzowstr. 9;Berlin;POINT(13.3343534 52.5209099)
25;13.34;52.51;DKV - ESSO Station  10555 Berlin  Lessingstraße 4;ESSO;10555;Lessingstraße 4;Berlin;POINT(13.341412 52.519708)
26;13.36;52.53;DKV - TOTAL Station  10557 Berlin  Heidestr. 19;TOTAL;10557;Heidestr. 19;Berlin;POINT(13.3646611 52.5343443)
27;13.35;52.53;DKV - WESTFEHLING Station  10559 Berlin  Quitzowstr. 33;WESTFEHLING;10559;Quitzowstr. 33;Berlin;POINT(13.3509984 52.5353376)
28;13.30;52.51;DKV - STAR Station  10585 Berlin  Otto-Suhr-Allee 134;STAR;10585;Otto-Suhr-Allee 134;Berlin;POINT(13.3027321 52.5189616)
29;13.30;52.51;DKV - STAR Station  10585 Berlin  Kaiser-Friedrich-Str. 102;STAR;10585;Kaiser-Friedrich-Str. 102;Berlin;POINT(13.3007934 52.5171824)
30;13.31;52.51;DKV - ARAL Station  10625 Berlin  Bismarckstr. 2;ARAL;10625;Bismarckstr. 2;Berlin;POINT(13.3189745 52.5125771)
31;13.30;52.50;DKV - ARAL Station  10627 Berlin  Kaiser-Friedrich-Str. 45 b;ARAL;10627;Kaiser-Friedrich-Str. 45 b;Berlin;POINT(13.3019147 52.5076186)
32;13.28;52.49;DKV - ARAL Station  10711 Berlin  Kurfürstendamm 128;ARAL;10711;Kurfürstendamm 128;Berlin;POINT(13.2875707 52.4959047)
33;13.30;52.48;DKV - SHELL Station  10713 Berlin  Hohenzollerndamm 41;SHELL;10713;Hohenzollerndamm 41;Berlin;POINT(13.3068266 52.4884006)
34;13.31;52.47;DKV - SPRINT Station  10713 Berlin  Mecklenburgische Str. 76;SPRINT;10713;Mecklenburgische Str. 76;Berlin;POINT(13.313278 52.479428)
35;13.33;52.48;DKV - ESSO Station  10715 Berlin  Bundesallee 176;ESSO;10715;Bundesallee 176;Berlin;POINT(13.331537 52.486417)
36;13.31;52.49;DKV - SPRINT Station  10719 Berlin  Lietzenburger Str. 97;SPRINT;10719;Lietzenburger Str. 97;Berlin;POINT(13.319361 52.499448)
37;13.34;52.49;DKV - ESSO Station  10779 Berlin  Martin-Luther-Str. 67;ESSO;10779;Martin-Luther-Str. 67;Berlin;POINT(13.34559 52.490066)
38;13.35;52.47;DKV - SHELL Station  10829 Berlin  Sachsendamm 90;SHELL;10829;Sachsendamm 90;Berlin;POINT(13.3548719 52.4786198)
39;13.39;52.49;DKV - ESSO Station  10961 Berlin  Gneisenaustr. 104 - 106;ESSO;10961;Gneisenaustr. 104 - 106;Berlin;POINT(13.390687 52.492719)
40;13.37;52.50;DKV - TOTAL Station  10963 Berlin  Tempelhofer Ufer 34;TOTAL;10963;Tempelhofer Ufer 34;Berlin;POINT(13.376734 52.500379)
41;13.38;52.48;DKV - ARAL Station  10965 Berlin  Dudenstr. 19;ARAL;10965;Dudenstr. 19;Berlin;POINT(13.3814619 52.4849241)
42;13.37;52.48;DKV - JET Station  10965 Berlin  Kreuzbergstr. 42a;JET;10965;Kreuzbergstr. 42a;Berlin;POINT(13.3740284 52.4882497)
43;13.40;52.50;DKV - ARAL Station  10969 Berlin  Prinzenstr. 29;ARAL;10969;Prinzenstr. 29;Berlin;POINT(13.4094085 52.5017932)
44;13.44;52.49;DKV - ARAL Station  10997 Berlin  Vor dem Schlesischen Tor 2;ARAL;10997;Vor dem Schlesischen Tor 2;Berlin;POINT(13.4497993 52.4968646)
45;13.42;52.49;DKV - ARAL Station  10999 Berlin  Skalitzer Str. 26;ARAL;10999;Skalitzer Str. 26;Berlin;POINT(13.4233238 52.498956)
46;13.42;52.48;DKV - SPRINT Station  12043 Berlin  Reuterstr. 18;SPRINT;12043;Reuterstr. 18;Berlin;POINT(13.42933 52.48461)
47;13.44;52.48;DKV - ARAL Station  12045 Berlin  Sonnenallee 113;ARAL;12045;Sonnenallee 113;Berlin;POINT(13.4414068 52.4812333)
48;13.42;52.48;DKV - ESSO Station  12047 Berlin  Sonnenallee 9;ESSO;12047;Sonnenallee 9;Berlin;POINT(13.42681 52.487455)
49;13.46;52.46;DKV - ARAL Station  12057 Berlin  Grenzallee 6;ARAL;12057;Grenzallee 6;Berlin;POINT(13.4622175 52.4692031)
50;13.44;52.46;DKV - JET Station  12057 Berlin  Karl-Marx-Str. 259;JET;12057;Karl-Marx-Str. 259;Berlin;POINT(13.442765 52.465619)
51;13.44;52.46;DKV - SHELL Station  12057 Berlin  Karl-Marx-Str. 267;SHELL;12057;Karl-Marx-Str. 267;Berlin;POINT(13.4428188 52.4652704)
52;13.39;52.45;DKV - HOYER Automatenstation  12099 Berlin  Ordensmeisterstr. 24 - 29;HOYER Automaten;12099;Ordensmeisterstr. 24 - 29;Berlin;POINT(13.397846 52.458519)
53;13.38;52.48;DKV - ESSO Station  12101 Berlin  Tempelhofer Damm 20;ESSO;12101;Tempelhofer Damm 20;Berlin;POINT(13.385317 52.481391)
54;13.37;52.47;DKV - ARAL Station  12103 Berlin  Schöneberger Str. 19;ARAL;12103;Schöneberger Str. 19;Berlin;POINT(13.3710394 52.4701775)
55;13.36;52.46;DKV - KAUFLAND Station  12103 Berlin  Bessemerstr. 57 / 79;KAUFLAND;12103;Bessemerstr. 57 / 79;Berlin;POINT(13.36781 52.46233)
56;13.37;52.47;DKV - TOTAL Station  12103 Berlin  Schöneberger Str. 17;TOTAL;12103;Schöneberger Str. 17;Berlin;POINT(13.371919 52.470124)
57;13.36;52.44;DKV - HEM Station  12105 Berlin  Attilastr. 124;HEM;12105;Attilastr. 124;Berlin;POINT(13.366198 52.448954)
58;13.36;52.45;DKV - TOTAL Station  12105 Berlin  Arnulfstr. 98 - 99;TOTAL;12105;Arnulfstr. 98 - 99;Berlin;POINT(13.3670874 52.4557151)
59;13.39;52.43;DKV - ARAL Station  12107 Berlin  Mariendorfer Damm 195;ARAL;12107;Mariendorfer Damm 195;Berlin;POINT(13.3904092 52.4340671)
60;13.39;52.42;DKV - GO Station  12107 Berlin  Mariendorfer Damm 306;GO;12107;Mariendorfer Damm 306;Berlin;POINT(13.39407 52.42591)
61;13.37;52.43;DKV - SHELL Station  12107 Berlin  Großbeerenstr. 82 / 88;SHELL;12107;Großbeerenstr. 82 / 88;Berlin;POINT(13.3775916 52.4337076)
62;13.38;52.44;DKV - ESSO Station  12109 Berlin  Mariendorfer Damm 44;ESSO;12109;Mariendorfer Damm 44;Berlin;POINT(13.384674 52.448913)
63;13.33;52.46;DKV - SPRINT Station  12157 Berlin  Körnerstr. 48a;SPRINT;12157;Körnerstr. 48a;Berlin;POINT(13.334591 52.464403)
64;13.31;52.45;DKV - ARAL Station  12165 Berlin  Schloßstr. 63;ARAL;12165;Schloßstr. 63;Berlin;POINT(13.3152653 52.4532246)
65;13.35;52.45;DKV - STAR Station  12169 Berlin  Steglitzer Damm 77;STAR;12169;Steglitzer Damm 77;Berlin;POINT(13.350191 52.450112)
66;13.29;52.44;DKV - ESSO Station  12205 Berlin  Unter den Eichen 67;ESSO;12205;Unter den Eichen 67;Berlin;POINT(13.291825 52.445174)
67;13.28;52.43;DKV - STAR Station  12205 Berlin  Finckensteinallee 133;STAR;12205;Finckensteinallee 133;Berlin;POINT(13.28629 52.432925)
68;13.30;52.41;DKV - AGIP Station  12207 Berlin  Ostpreußendamm 89;AGIP;12207;Ostpreußendamm 89;Berlin;POINT(13.302915 52.415424)
69;13.31;52.42;DKV - SPRINT Station  12207 Berlin  Barnackufer 25;SPRINT;12207;Barnackufer 25;Berlin;POINT(13.31205 52.429915)
70;13.31;52.43;DKV - STAR Station  12207 Berlin  Königsberger Str. 25 a;STAR;12207;Königsberger Str. 25 a;Berlin;POINT(13.3126884 52.4301086)
71;13.31;52.41;DKV - TOTAL Station  12209 Berlin  Hildburghauser Str. 222;TOTAL;12209;Hildburghauser Str. 222;Berlin;POINT(13.3192869 52.4190101)
72;13.35;52.43;DKV - ARAL Station  12247 Berlin  Kaiser-Wilhelm-Str. 117;ARAL;12247;Kaiser-Wilhelm-Str. 117;Berlin;POINT(13.3512042 52.4397315)
73;13.33;52.43;DKV - ESSO Station  12247 Berlin  Kaiser-Wilhelm-Str. 34;ESSO;12247;Kaiser-Wilhelm-Str. 34;Berlin;POINT(13.33814 52.432253)
74;13.36;52.42;DKV - AGIP Station  12249 Berlin  Belßstr. 51;AGIP;12249;Belßstr. 51;Berlin;POINT(13.36504 52.42745)
75;13.38;52.41;DKV - JET Station  12277 Berlin  Buckower Chaussee 36 - 42;JET;12277;Buckower Chaussee 36 - 42;Berlin;POINT(13.3876937 52.412063)
76;13.34;52.41;DKV - HEM Station  12279 Berlin  Lichterfelder Ring 96;HEM;12279;Lichterfelder Ring 96;Berlin;POINT(13.347337 52.412229)
77;13.35;52.41;DKV - SPRINT Station  12279 Berlin  Hildburghauser Str. 27;SPRINT;12279;Hildburghauser Str. 27;Berlin;POINT(13.355128 52.413189)
78;13.35;52.41;DKV - STAR Station  12279 Berlin  Hildburghauser Str. 7;STAR;12279;Hildburghauser Str. 7;Berlin;POINT(13.3587527 52.4128058)
79;13.40;52.38;DKV - ESSO Station  12305 Berlin  Lichtenrader Damm 270 / 274;ESSO;12305;Lichtenrader Damm 270 / 274;Berlin;POINT(13.40843 52.387691)
80;13.42;52.45;DKV - ESSO Station  12347 Berlin  Tempelhofer Weg 32;ESSO;12347;Tempelhofer Weg 32;Berlin;POINT(13.426262 52.456841)
81;13.43;52.45;DKV - TOTAL Station  12347 Berlin  Britzer Damm 62;TOTAL;12347;Britzer Damm 62;Berlin;POINT(13.436193 52.457108)
82;13.40;52.41;DKV - ESSO Station  12349 Berlin  Marienfelder Chaussee 171;ESSO;12349;Marienfelder Chaussee 171;Berlin;POINT(13.401929 52.414526)
83;13.47;52.43;DKV - SPRINT Station  12351 Berlin  Rudower Str. 148;SPRINT;12351;Rudower Str. 148;Berlin;POINT(13.471099 52.433153)
84;13.46;52.43;DKV - STAR Station  12351 Berlin  Johannisthaler Chaussee 263;STAR;12351;Johannisthaler Chaussee 263;Berlin;POINT(13.460696 52.431961)
85;13.47;52.42;DKV - ESSO Station  12353 Berlin  Fritz-Erler-Allee 154;ESSO;12353;Fritz-Erler-Allee 154;Berlin;POINT(13.474281 52.425434)
86;13.48;52.42;DKV - ARAL Station  12357 Berlin  Neukölllner Str. 250;ARAL;12357;Neukölllner Str. 250;Berlin;POINT(13.4820434 52.4264181)
87;13.48;52.42;DKV - TOTAL Station  12357 Berlin  Neuköllner Str. 294;TOTAL;12357;Neuköllner Str. 294;Berlin;POINT(13.4870552 52.4226676)
88;13.44;52.45;DKV - ARAL Station  12359 Berlin  Buschkrugallee 92;ARAL;12359;Buschkrugallee 92;Berlin;POINT(13.4494052 52.4563382)
89;13.45;52.44;DKV - SPRINT Station  12359 Berlin  Grüner Weg 75;SPRINT;12359;Grüner Weg 75;Berlin;POINT(13.458465 52.444457)
90;13.45;52.45;DKV - TOTAL Station  12359 Berlin  Späthstraße 158;TOTAL;12359;Späthstraße 158;Berlin;POINT(13.456582 52.453108)
91;13.47;52.48;DKV - TOTAL Station  12435 Berlin  Bulgarische Straße 9;TOTAL;12435;Bulgarische Straße 9;Berlin;POINT(13.4784764 52.4837269)
92;13.49;52.46;DKV - ARAL Station  12437 Berlin  Köpenicker Landstr. 296;ARAL;12437;Köpenicker Landstr. 296;Berlin;POINT(13.4960824 52.465643)
93;13.50;52.45;DKV - ARAL Station  12439 Berlin  Schnellerstr. 20;ARAL;12439;Schnellerstr. 20;Berlin;POINT(13.5049442 52.4596433)
94;13.51;52.45;DKV - FREIE Station  12439 Berlin  Michael-Brückner-Str. 26;FREIE;12439;Michael-Brückner-Str. 26;Berlin;POINT(13.5133668 52.4538484)
95;13.51;52.45;DKV - JET Station  12439 Berlin  Michael-Brückner-Str. 25;JET;12439;Michael-Brückner-Str. 25;Berlin;POINT(13.5149645 52.4526226)
96;13.52;52.44;DKV - STAR Station  12439 Berlin  Adlergestell 121;STAR;12439;Adlergestell 121;Berlin;POINT(13.526997 52.445432)
97;13.55;52.45;DKV - ARAL Station  12459 Berlin  An der Wuhlheide 240;ARAL;12459;An der Wuhlheide 240;Berlin;POINT(13.5557086 52.4552775)
98;13.50;52.48;DKV - SHELL Station  12459 Berlin  Rummelsburger Landstr. 16;SHELL;12459;Rummelsburger Landstr. 16;Berlin;POINT(13.502121 52.48133)
99;13.54;52.43;DKV - AGIP Station  12489 Berlin  Adlergestell 289;AGIP;12489;Adlergestell 289;Berlin;POINT(13.546866 52.4316955)
100;13.53;52.44;DKV - ELAN Station  12489 Berlin  Adlergestell 179;ELAN;12489;Adlergestell 179;Berlin;POINT(13.5329718 52.4412849)
101;13.54;52.43;DKV - HEM Station  12489 Berlin  Adlergestell 305;HEM;12489;Adlergestell 305;Berlin;POINT(13.549012 52.430478)
102;13.55;52.43;DKV - JET Station  12489 Berlin  Glienicker Weg 105-107;JET;12489;Glienicker Weg 105-107;Berlin;POINT(13.559597 52.435057)
103;13.55;52.43;DKV - CleanCar Station  12490 Berlin  Glienicker Weg 182;CleanCar;12490;Glienicker Weg 182;Berlin;POINT(13.552698 52.431031)
104;13.55;52.42;DKV - STAR Station  12527 Berlin  Adlergestell 391;STAR;12527;Adlergestell 391;Berlin;POINT(13.559403 52.423631)
105;13.57;52.41;DKV - TOTAL Station  12527 Berlin  Adlergestell 543;TOTAL;12527;Adlergestell 543;Berlin;POINT(13.5727939 52.4142465)
106;13.63;52.38;DKV - TOTAL Station  12527 Berlin  Adlergestell 623;TOTAL;12527;Adlergestell 623;Berlin;POINT(13.6314454 52.3872392)
107;13.58;52.45;DKV - FREIE Station  12555 Berlin  Friedrichshagener Str. 4;FREIE;12555;Friedrichshagener Str. 4;Berlin;POINT(13.5815091 52.4518776)
108;13.57;52.47;DKV - HEM Station  12555 Berlin  Kaulsdorfer Str. 124;HEM;12555;Kaulsdorfer Str. 124;Berlin;POINT(13.571344 52.471998)
109;13.59;52.45;DKV - JET Station  12555 Berlin  Bellevuestr. 14;JET;12555;Bellevuestr. 14;Berlin;POINT(13.5926628 52.4527665)
110;13.56;52.44;DKV - TOTAL Station  12555 Berlin  Oberspreestr. 138;TOTAL;12555;Oberspreestr. 138;Berlin;POINT(13.5616268 52.4460125)
111;13.66;52.40;DKV - SPRINT Station  12559 Berlin  Gosener Damm 15;SPRINT;12559;Gosener Damm 15;Berlin;POINT(13.666439 52.409844)
112;13.62;52.45;DKV - ARAL Station  12587 Berlin  Fürstenwalder Straße 445 - 447;ARAL;12587;Fürstenwalder Straße 445 - 447;Berlin;POINT(13.6211381 52.4563217)
113;13.61;52.45;DKV - ELAN Station  12587 Berlin  Fürstenwalder Damm 418;ELAN;12587;Fürstenwalder Damm 418;Berlin;POINT(13.6169401 52.4550093)
114;13.69;52.43;DKV - ESSO Station  12589 Berlin  Fuerstenwalder Allee 100;ESSO;12589;Fuerstenwalder Allee 100;Berlin;POINT(13.695944 52.436652)
115;13.58;52.51;DKV - AGIP Station  12619 Berlin  Gülzower Str. 15 a;AGIP;12619;Gülzower Str. 15 a;Berlin;POINT(13.5815281 52.5140516)
116;13.57;52.49;DKV - ESSO Station  12621 Berlin  Chemnitzer Str. 179;ESSO;12621;Chemnitzer Str. 179;Berlin;POINT(13.5756174 52.4901609)
117;13.61;52.50;DKV - AGIP Station  12623 Berlin  Alt-Mahlsdorf 93 - 94;AGIP;12623;Alt-Mahlsdorf 93 - 94;Berlin;POINT(13.6192233 52.5039023)
118;13.61;52.50;DKV - HEM Station  12623 Berlin  Alt-Mahlsdorf 40;HEM;12623;Alt-Mahlsdorf 40;Berlin;POINT(13.6169743 52.5049962)
119;13.61;52.50;DKV - STAR Station  12623 Berlin  Alt-Mahlsdorf 117;STAR;12623;Alt-Mahlsdorf 117;Berlin;POINT(13.611094 52.504464)
120;13.62;52.50;DKV - TOTAL Station  12623 Berlin  Alt-Mahlsdorf 60;TOTAL;12623;Alt-Mahlsdorf 60;Berlin;POINT(13.6241447 52.5039812)
121;13.62;52.53;DKV - HEM Station  12627 Berlin  Riesaer Str. 121;HEM;12627;Riesaer Str. 121;Berlin;POINT(13.624688 52.530118)
122;13.55;52.55;DKV - ARAL Station  12679 Berlin  Märkische Allee 248;ARAL;12679;Märkische Allee 248;Berlin;POINT(13.5514928 52.5540477)
123;13.54;52.55;DKV - JET Station  12679 Berlin  Märkische Allee 246;JET;12679;Märkische Allee 246;Berlin;POINT(13.549785 52.5518802)
124;13.53;52.53;DKV - ARAL Station  12681 Berlin  Märkische Allee 155;ARAL;12681;Märkische Allee 155;Berlin;POINT(13.5365648 52.5320112)
125;13.57;52.54;DKV - ARAL Station  12681 Berlin  Landsberger Allee 534;ARAL;12681;Landsberger Allee 534;Berlin;POINT(13.574106 52.546449)
126;13.53;52.53;DKV - CleanCar Station  12681 Berlin  Marzahner Chaussee 232;CleanCar;12681;Marzahner Chaussee 232;Berlin;POINT(13.532585 52.531024)
127;13.54;52.52;DKV - SB Station  12681 Berlin  Märkische Allee 61;SB;12681;Märkische Allee 61;Berlin;POINT(13.5408053 52.5215722)
128;13.52;52.55;DKV - FREIE Station  12681 Berlin  Bitterfelder Str. 29;FREIE;12681;Bitterfelder Str. 29;Berlin;POINT(13.5284805 52.5566365)
129;13.51;52.51;DKV - TOTAL Station  12681 Berlin  Rhinstr. 52;TOTAL;12681;Rhinstr. 52;Berlin;POINT(13.51958 52.5185112)
130;13.56;52.54;DKV - TOTAL Station  12681 Berlin  Landsberger Allee 526;TOTAL;12681;Landsberger Allee 526;Berlin;POINT(13.568946 52.545014)
131;13.52;52.53;DKV - TOTAL Station  12681 Berlin  Landsberger Allee 376;TOTAL;12681;Landsberger Allee 376;Berlin;POINT(13.5226412 52.5357281)
132;13.53;52.51;DKV - ARAL Station  12683 Berlin  Alt-Friedrichsfelde 64;ARAL;12683;Alt-Friedrichsfelde 64;Berlin;POINT(13.5386157 52.5101421)
133;13.54;52.51;DKV - HOYER Station  12683 Berlin  Alt-Friedrichsfelde 63 b;HOYER;12683;Alt-Friedrichsfelde 63 b;Berlin;POINT(13.543332 52.51273)
134;13.56;52.49;DKV - JET Station  12683 Berlin  Köpenicker Straße 108;JET;12683;Köpenicker Straße 108;Berlin;POINT(13.5612273 52.4921487)
135;13.56;52.53;DKV - JET Station  12683 Berlin  Elisabethstr. 111;JET;12683;Elisabethstr. 111;Berlin;POINT(13.5658333 52.535)
136;13.56;52.51;DKV - STAR Station  12683 Berlin  Altentreptower Str. 2;STAR;12683;Altentreptower Str. 2;Berlin;POINT(13.563619 52.513204)
137;13.56;52.57;DKV - AGIP Station  12689 Berlin  Ahrensfelder Chaussee 152;AGIP;12689;Ahrensfelder Chaussee 152;Berlin;POINT(13.5647851 52.5720616)
138;13.49;52.56;DKV - STAR Station  13051 Berlin  Hansastr. 220;STAR;13051;Hansastr. 220;Berlin;POINT(13.496511 52.56023)
139;13.49;52.56;DKV - TOTAL Station  13051 Berlin  Ribnitzer Str. 42;TOTAL;13051;Ribnitzer Str. 42;Berlin;POINT(13.492411 52.5659164)
140;13.46;52.54;DKV - ESSO Station  13053 Berlin  Indira-Gandhi-Str. 75;ESSO;13053;Indira-Gandhi-Str. 75;Berlin;POINT(13.469289 52.542891)
141;13.51;52.55;DKV - STAR Station  13053 Berlin  Gehrenseestr. 10;STAR;13053;Gehrenseestr. 10;Berlin;POINT(13.5136824 52.5509212)
142;13.51;52.53;DKV - TOTAL Station  13053 Berlin  Rhinstr. 175;TOTAL;13053;Rhinstr. 175;Berlin;POINT(13.51602 52.5367596)
143;13.46;52.54;DKV - TOTAL Station  13053 Berlin  Indira-Gandhi-Str. 108;TOTAL;13053;Indira-Gandhi-Str. 108;Berlin;POINT(13.4674963 52.5475625)
144;13.50;52.54;DKV - JET Station  13055 Berlin  Rhinstr. 240;JET;13055;Rhinstr. 240;Berlin;POINT(13.509418 52.547274)
145;13.52;52.55;DKV - STAR Station  13057 Berlin  Pablo-Picasso-Straße 50;STAR;13057;Pablo-Picasso-Straße 50;Berlin;POINT(13.527348 52.557019)
146;13.43;52.55;DKV - CleanCar Station  13086 Berlin  Am Steinberg 21;CleanCar;13086;Am Steinberg 21;Berlin;POINT(13.432379 52.557877)
147;13.47;52.56;DKV - HEM Station  13088 Berlin  Berliner Allee 320;HEM;13088;Berliner Allee 320;Berlin;POINT(13.471759 52.56561)
148;13.46;52.56;DKV - STAR Station  13088 Berlin  Berliner Allee 257;STAR;13088;Berliner Allee 257;Berlin;POINT(13.467049 52.560855)
149;13.49;52.55;DKV - STAR Station  13088 Berlin  Hansastr. 199;STAR;13088;Hansastr. 199;Berlin;POINT(13.491865 52.55885)
150;13.47;52.56;DKV - STAR Station  13088 Berlin  Malchower Chaussee 1;STAR;13088;Malchower Chaussee 1;Berlin;POINT(13.4714055 52.5661319)
151;13.45;52.56;DKV - TOTAL Station  13088 Berlin  Roelckestr. 76;TOTAL;13088;Roelckestr. 76;Berlin;POINT(13.4586316 52.562085)
152;13.43;52.55;DKV - ELAN Station  13089 Berlin  Tino-Schwierzina-Str. 37;ELAN;13089;Tino-Schwierzina-Str. 37;Berlin;POINT(13.4328085 52.5584736)
153;13.42;52.56;DKV - HEM Station  13089 Berlin  Prenzlauer Promenade 68;HEM;13089;Prenzlauer Promenade 68;Berlin;POINT(13.428018 52.567964)
154;13.44;52.56;DKV - HEM Station  13089 Berlin  Romain-Rolland-Str. 2;HEM;13089;Romain-Rolland-Str. 2;Berlin;POINT(13.448933 52.564684)
155;13.42;52.55;DKV - JET Station  13089 Berlin  Prenzlauer Promenade 42 a;JET;13089;Prenzlauer Promenade 42 a;Berlin;POINT(13.428374 52.5592073)
156;13.42;52.57;DKV - SHELL Station  13089 Berlin  Rothenbachstr. 1;SHELL;13089;Rothenbachstr. 1;Berlin;POINT(13.4296708 52.5717292)
157;13.44;52.57;DKV - SPRINT Station  13089 Berlin  Blankenburger Str. 99;SPRINT;13089;Blankenburger Str. 99;Berlin;POINT(13.442953 52.57141)
158;13.42;52.56;DKV - STAR Station  13089 Berlin  Prenzlauer Promenade 72;STAR;13089;Prenzlauer Promenade 72;Berlin;POINT(13.428683 52.56876)
159;13.51;52.64;DKV - TOTAL Station  13125 Berlin  Zepernicker Str. 9;TOTAL;13125;Zepernicker Str. 9;Berlin;POINT(13.5139655 52.6411088)
160;13.42;52.58;DKV - ARAL Station  13127 Berlin  Pasewalker Str. 110;ARAL;13127;Pasewalker Str. 110;Berlin;POINT(13.429862 52.586161)
161;13.43;52.61;DKV - HEM Station  13127 Berlin  Schönerlinder Str. 60;HEM;13127;Schönerlinder Str. 60;Berlin;POINT(13.433323 52.613208)
162;13.43;52.60;DKV - JET Station  13127 Berlin  Hauptstr. 70 A;JET;13127;Hauptstr. 70 A;Berlin;POINT(13.4332658 52.6062733)
163;13.43;52.58;DKV - TOTAL Station  13127 Berlin  Am Feuchten Winkel 11;TOTAL;13127;Am Feuchten Winkel 11;Berlin;POINT(13.432133 52.581867)
164;13.40;52.58;DKV - BFT Station  13156 Berlin  Blankenburger Str. 36;BFT;13156;Blankenburger Str. 36;Berlin;POINT(13.409843 52.581976)
165;13.40;52.58;DKV - TOTAL Station  13156 Berlin  Wackenbergstr. 2;TOTAL;13156;Wackenbergstr. 2;Berlin;POINT(13.403765 52.582932)
166;13.40;52.59;DKV - AGIP Station  13158 Berlin  Dietzgenstr. 127;AGIP;13158;Dietzgenstr. 127;Berlin;POINT(13.402666 52.594426)
167;13.37;52.57;DKV - TAMOIL Station  13158 Berlin  Straße vor Schönholz 3;TAMOIL;13158;Straße vor Schönholz 3;Berlin;POINT(13.3788208 52.5764503)
168;13.40;52.56;DKV - ARAL Station  13187 Berlin  Mühlenstr. 26;ARAL;13187;Mühlenstr. 26;Berlin;POINT(13.4079172 52.5639649)
169;13.34;52.53;DKV - AGIP Station  13353 Berlin  Westhafenstr. 1;AGIP;13353;Westhafenstr. 1;Berlin;POINT(13.3416193 52.5374773)
170;13.34;52.54;DKV - ARAL Station  13353 Berlin  Seestr. 18/19;ARAL;13353;Seestr. 18/19;Berlin;POINT(13.3449811 52.546448)
171;13.32;52.53;DKV - SB Station  13353 Berlin  Seestr. 1;SB;13353;Seestr. 1;Berlin;POINT(13.3276961 52.5382764)
172;13.36;52.54;DKV - HEM Station  13353 Berlin  Müllerstr. 168;HEM;13353;Müllerstr. 168;Berlin;POINT(13.365296 52.542397)
173;13.39;52.54;DKV - ARAL Station  13355 Berlin  Brunnenstr. 119;ARAL;13355;Brunnenstr. 119;Berlin;POINT(13.393469 52.540795)
174;13.31;52.57;DKV - TOTAL Station  13403 Berlin  Eichborndamm 91;TOTAL;13403;Eichborndamm 91;Berlin;POINT(13.314641 52.576322)
175;13.32;52.56;DKV - ARAL Station  13405 Berlin  Scharnweberstr. 12 - 13;ARAL;13405;Scharnweberstr. 12 - 13;Berlin;POINT(13.3297429 52.5632363)
176;13.32;52.56;DKV - JET Station  13405 Berlin  Kurt-Schumacher-Damm 36;JET;13405;Kurt-Schumacher-Damm 36;Berlin;POINT(13.32712 52.56149)
177;13.34;52.57;DKV - ARAL Station  13407 Berlin  Roedernallee 179;ARAL;13407;Roedernallee 179;Berlin;POINT(13.3464986 52.5793506)
178;13.33;52.56;DKV - ESSO Station  13407 Berlin  Holländerstr. 52;ESSO;13407;Holländerstr. 52;Berlin;POINT(13.335623 52.564594)
179;13.36;52.57;DKV - HOYER Station  13407 Berlin  Kopenhagener Straße 36 / 58;HOYER;13407;Kopenhagener Straße 36 / 58;Berlin;POINT(13.3606 52.577301)
180;13.36;52.56;DKV - ARAL Station  13409 Berlin  Residenzstr. 29;ARAL;13409;Residenzstr. 29;Berlin;POINT(13.3616862 52.5683989)
181;13.37;52.55;DKV - SPRINT Station  13409 Berlin  Residenzstr. 79;SPRINT;13409;Residenzstr. 79;Berlin;POINT(13.370558 52.558851)
182;13.36;52.56;DKV - TOTAL Station  13409 Berlin  Markstr. 43 - 44;TOTAL;13409;Markstr. 43 - 44;Berlin;POINT(13.364871 52.562303)
183;13.34;52.59;DKV - ESSO Station  13435 Berlin  Wilhelmsruher Damm 160 / 164;ESSO;13435;Wilhelmsruher Damm 160 / 164;Berlin;POINT(13.346873 52.59653)
184;13.33;52.59;DKV - SUN Station  13437 Berlin  Oranienburger Str. 181;SUN;13437;Oranienburger Str. 181;Berlin;POINT(13.332048 52.598691)
185;13.34;52.59;DKV - AGIP Station  13439 Berlin  Dannenwalder Weg 69;AGIP;13439;Dannenwalder Weg 69;Berlin;POINT(13.3467029 52.5915272)
186;13.30;52.61;DKV - AUTO SPREVES Station  13467 Berlin  Hermsdorfer Damm 180;AUTO SPREVES;13467;Hermsdorfer Damm 180;Berlin;POINT(13.3040507 52.6192636)
187;13.31;52.62;DKV - ESSO Station  13467 Berlin  Hermsdorfer Damm 221;ESSO;13467;Hermsdorfer Damm 221;Berlin;POINT(13.312269 52.622566)
188;13.31;52.61;DKV - HEM Station  13467 Berlin  Berliner Str. 140;HEM;13467;Berliner Str. 140;Berlin;POINT(13.31504 52.61329)
189;13.32;52.60;DKV - HEM Station  13469 Berlin  Zabel-Krüger-Damm 20;HEM;13469;Zabel-Krüger-Damm 20;Berlin;POINT(13.327635 52.608672)
190;13.31;52.61;DKV - STAR Station  13469 Berlin  Oraniendamm 28;STAR;13469;Oraniendamm 28;Berlin;POINT(13.3189004 52.6110484)
191;13.23;52.62;DKV - SHELL Station  13503 Berlin  Ruppiner Chaussee 339;SHELL;13503;Ruppiner Chaussee 339;Berlin;POINT(13.2367322 52.6205827)
192;13.24;52.60;DKV - STAR Station  13503 Berlin  Heiligenseestr. 28;STAR;13503;Heiligenseestr. 28;Berlin;POINT(13.2430773 52.601674)
193;13.23;52.58;DKV - TOTAL Station  13505 Berlin  Habichtstr. 11 - 13;TOTAL;13505;Habichtstr. 11 - 13;Berlin;POINT(13.2314623 52.5857246)
194;13.29;52.58;DKV - ARAL Station  13507 Berlin  Berliner Str. 67;ARAL;13507;Berliner Str. 67;Berlin;POINT(13.2912007 52.5812844)
195;13.30;52.57;DKV - HEM Station  13509 Berlin  Wittestr. 16;HEM;13509;Wittestr. 16;Berlin;POINT(13.306433 52.57751)
196;13.29;52.57;DKV - JET Station  13509 Berlin  Holzhauser Straße 34;JET;13509;Holzhauser Straße 34;Berlin;POINT(13.299122 52.578658)
197;13.29;52.59;DKV - STAR Station  13509 Berlin  Waidmannsluster Damm 54;STAR;13509;Waidmannsluster Damm 54;Berlin;POINT(13.298681 52.59829)
198;13.19;52.52;DKV - SUN Station  13581 Berlin  Klosterstr. 20;SUN;13581;Klosterstr. 20;Berlin;POINT(13.195175 52.529463)
199;13.18;52.53;DKV - JET Station  13581 Berlin  Brunsbütteler Damm 87-89;JET;13581;Brunsbütteler Damm 87-89;Berlin;POINT(13.1851869 52.5336593)
200;13.18;52.53;DKV - STAR Station  13581 Berlin  Brunsbütteler Damm 96;STAR;13581;Brunsbütteler Damm 96;Berlin;POINT(13.1839799 52.5345305)
201;13.18;52.54;DKV - SPREVES Station  13583 Berlin  Zeppelinstr. 51;SPREVES;13583;Zeppelinstr. 51;Berlin;POINT(13.183025 52.540123)
202;13.17;52.54;DKV - ESSO Station  13583 Berlin  Falkenseer Chaussee 50;ESSO;13583;Falkenseer Chaussee 50;Berlin;POINT(13.17897 52.549044)
203;13.19;52.53;DKV - SPRINT Station  13583 Berlin  Seegefelder Str. 41;SPRINT;13583;Seegefelder Str. 41;Berlin;POINT(13.191206 52.53594)
204;13.19;52.54;DKV - ARAL Station  13585 Berlin  Falkenseer Damm 16;ARAL;13585;Falkenseer Damm 16;Berlin;POINT(13.1999061 52.5422554)
205;13.20;52.55;DKV - TOTAL Station  13587 Berlin  Streitstr. 84;TOTAL;13587;Streitstr. 84;Berlin;POINT(13.207277 52.554486)
206;13.17;52.51;DKV - AGIP Station  13593 Berlin  Heerstr. 343;AGIP;13593;Heerstr. 343;Berlin;POINT(13.1753198 52.5173207)
207;13.17;52.51;DKV - ARAL Station  13593 Berlin  Heerstr. 325;ARAL;13593;Heerstr. 325;Berlin;POINT(13.1778771 52.5167918)
208;13.17;52.51;DKV - SHELL Station  13593 Berlin  Heerstr. 326/328;SHELL;13593;Heerstr. 326/328;Berlin;POINT(13.1784036 52.5168822)
209;13.18;52.51;DKV - TOTAL Station  13593 Berlin  Heerstr. 324;TOTAL;13593;Heerstr. 324;Berlin;POINT(13.1819091 52.5162248)
210;13.20;52.52;DKV - ACCESS Station  13595 Berlin  Götelstr. 132 / 140;ACCESS;13595;Götelstr. 132 / 140;Berlin;POINT(13.203649 52.522972)
211;13.18;52.51;DKV - ESSO Station  13595 Berlin  Heerstr. 285;ESSO;13595;Heerstr. 285;Berlin;POINT(13.185008 52.514924)
212;13.18;52.50;DKV - STAR Station  13595 Berlin  Gatower Str. 173;STAR;13595;Gatower Str. 173;Berlin;POINT(13.180353 52.504669)
213;13.21;52.52;DKV - ESSO Station  13597 Berlin  Ruhlebener Str. 185;ESSO;13597;Ruhlebener Str. 185;Berlin;POINT(13.210224 52.527434)
214;13.23;52.52;DKV - JET Station  13597 Berlin  Charlottenburger Chaussee 47;JET;13597;Charlottenburger Chaussee 47;Berlin;POINT(13.23381 52.5271749)
215;13.20;52.52;DKV - SPRINT Station  13597 Berlin  Ruhlebener Str. 1 a;SPRINT;13597;Ruhlebener Str. 1 a;Berlin;POINT(13.207237 52.529172)
216;13.23;52.52;DKV - CleanCar Station  13598 Berlin  Charlottenburger Ch. 53 a;CleanCar;13598;Charlottenburger Ch. 53 a;Berlin;POINT(13.232803 52.526864)
217;13.24;52.54;DKV - ARAL Station  13599 Berlin  Gartenfelder Str. 71;ARAL;13599;Gartenfelder Str. 71;Berlin;POINT(13.2434879 52.5437559)
218;13.22;52.53;DKV - SHELL Station  13599 Berlin  Am Juliusturm 33;SHELL;13599;Am Juliusturm 33;Berlin;POINT(13.2220289 52.5368477)
219;13.24;52.53;DKV - SPRINT Station  13599 Berlin  Otternbuchtstr. 37;SPRINT;13599;Otternbuchtstr. 37;Berlin;POINT(13.247526 52.537728)
220;13.31;52.54;DKV - HEM Station  13627 Berlin  Saatwinkler Damm 62;HEM;13627;Saatwinkler Damm 62;Berlin;POINT(13.31 52.547365)
221;13.28;52.53;DKV - TP24Automat  13627 Berlin  Nonnendamm 10;TP24Automat;13627;Nonnendamm 10;Berlin;POINT(13.28091 52.53157)
222;13.27;52.51;DKV - SHELL Station  14050 Berlin  Spandauer Damm 151;SHELL;14050;Spandauer Damm 151;Berlin;POINT(13.2721193 52.5193119)
223;13.26;52.51;DKV - ARAL Station  14052 Berlin  Reichsstr. 13;ARAL;14052;Reichsstr. 13;Berlin;POINT(13.2660979 52.5133756)
224;13.26;52.51;DKV - TOTAL Station  14052 Berlin  Reichsstr. 86;TOTAL;14052;Reichsstr. 86;Berlin;POINT(13.262439 52.514878)
225;13.27;52.50;DKV - AGIP Station  14055 Berlin  A 115;AGIP;14055;A 115;Berlin;POINT(13.278404 52.50169)
226;13.22;52.50;DKV - ARAL Station  14055 Berlin  Heerstr. 136;ARAL;14055;Heerstr. 136;Berlin;POINT(13.2269631 52.5072449)
227;13.26;52.50;DKV - TOTAL Station  14055 Berlin  Heerstr. 35 - 37;TOTAL;14055;Heerstr. 35 - 37;Berlin;POINT(13.260556 52.508415)
228;13.28;52.50;DKV - ARAL Station  14057 Berlin  Messedamm 6;ARAL;14057;Messedamm 6;Berlin;POINT(13.2806701 52.5074428)
229;13.27;52.51;DKV - SHELL Station  14057 Berlin  Kaiserdamm 34;SHELL;14057;Kaiserdamm 34;Berlin;POINT(13.27694 52.510023)
230;13.14;52.45;DKV - FREIE Station  14089 Berlin  Kladower Damm 332;FREIE;14089;Kladower Damm 332;Berlin;POINT(13.1489687 52.4572213)
231;13.19;52.43;DKV - AGIP Station  14129 Berlin  A 115;AGIP;14129;A 115;Berlin;POINT(13.1916187 52.4345696)
232;13.22;52.42;DKV - SHELL Station  14129 Berlin  Potsdamer Chaussee 24;SHELL;14129;Potsdamer Chaussee 24;Berlin;POINT(13.2227026 52.429472)
233;13.24;52.43;DKV - AGIP Station  14163 Berlin  Potsdamer Str. 31;AGIP;14163;Potsdamer Str. 31;Berlin;POINT(13.2488297 52.434496)
234;13.23;52.43;DKV - ARAL Station  14163 Berlin  Potsdamer Chaussee 6;ARAL;14163;Potsdamer Chaussee 6;Berlin;POINT(13.237895 52.433073)
235;13.24;52.44;DKV - FREIE Station  14163 Berlin  Argentinische Allee 47;FREIE;14163;Argentinische Allee 47;Berlin;POINT(13.2410763 52.4435079)
236;13.24;52.43;DKV - SPRINT Station  14163 Berlin  Potsdamer Str. 11 a;SPRINT;14163;Potsdamer Str. 11 a;Berlin;POINT(13.243181 52.433513)
237;13.23;52.43;DKV - STAR Station  14163 Berlin  Lindenthaler Allee 42;STAR;14163;Lindenthaler Allee 42;Berlin;POINT(13.2303285 52.4311847)
238;13.26;52.41;DKV - ELAN Station  14167 Berlin  Teltower Damm 173;ELAN;14167;Teltower Damm 173;Berlin;POINT(13.265461 52.4179812)
239;13.26;52.41;DKV - STAR Station  14167 Berlin  Teltower Damm 164;STAR;14167;Teltower Damm 164;Berlin;POINT(13.264591 52.4191205)
240;13.26;52.43;DKV - ESSO Station  14169 Berlin  Berliner Str. 20;ESSO;14169;Berliner Str. 20;Berlin;POINT(13.266519 52.435687)
241;13.26;52.43;DKV - TOTAL Station  14169 Berlin  Berliner Str. 15 a;TOTAL;14169;Berliner Str. 15 a;Berlin;POINT(13.2656562 52.4359571)
242;13.28;52.49;DKV - ESSO Station  14193 Berlin  Hubertusallee 1;ESSO;14193;Hubertusallee 1;Berlin;POINT(13.284873 52.494197)
243;13.27;52.46;DKV - ESSO Station  14195 Berlin  Clayallee 90;ESSO;14195;Clayallee 90;Berlin;POINT(13.275345 52.460752)
244;13.29;52.45;DKV - STAR Station  14195 Berlin  Königin-Luise-Str. 22 a;STAR;14195;Königin-Luise-Str. 22 a;Berlin;POINT(13.2977727 52.4575506)
245;13.27;52.47;DKV - ARAL Station  14199 Berlin  Hohenzollerndamm 97;ARAL;14199;Hohenzollerndamm 97;Berlin;POINT(13.2792565 52.4758463)
